#dP2021  8  7  0  0  0.00000000      96 __u+U ITR00 EXT  IAC
## 2169 518400.00000000   900.00000000 59433 0.0000000000000
+  114   C07C08C09C10C11C12C13C14C16C19C20C21C22C23C24C25C26
+        C27C28C29C30C32C33C34C35C36C37C38C40C41C42C43C44C45
+        C46E01E02E03E04E05E07E08E09E11E12E13E14E15E18E19E21
+        E24E25E26E27E30E31E33E36G01G02G04G05G06G07G08G09G10
+        G11G12G13G14G15G16G17G18G19G20G21G22G23G24G25G26G27
+        G28G29G30G31G32J01J02J03R01R02R03R04R05R07R08R09R11
+        R12R13R14R15R16R17R18R19R20R21R22R24  0  0  0  0  0
++        10  8  9 10 10  8  9 14 10  9  7  8  8  7  9 10 10
++         8  7  9  7  7  8  8  8  9  8  9 10  9 10  9  8 10
++         6  8  6  8  8  9  8  8  8  7  8  9  8  7  8  8  8
++         8  8  8  8  9  7  8  7  8  7  7  6  7  8  7  8  6
++         6  8  8  7  8  8  9  8  9  7  8  6  8  8  7  7  7
++         7  9  7  8  8 12 11 10  8 10  7  8  9  7  8  9  8
++        10  8  9  9  6  8  8  9  7  8  9  8  0  0  0  0  0
%c M  cc GPS ccc cccc cccc cccc cccc ccccc ccccc ccccc ccccc
%c cc cc ccc ccc cccc cccc cccc cccc ccccc ccccc ccccc ccccc
%f  0.0000000  0.000000000  0.00000000000  0.000000000000000
%f  0.0000000  0.000000000  0.00000000000  0.000000000000000
%i    0    0    0    0      0      0      0      0         0
%i    0    0    0    0      0      0      0      0         0
/* IAC                                ULTRA-RAPID PREDICTION
/* S/V CLOCKS ARE ALIGNED TO GNSS TIME                      
/* G:C1WC2W R:C1PC2P E:C1XC5X C:C2IC6I J:C1CC2S             
/* PCV:IGS14_2163 OL/AL:FES2004  NONE     YN ORB:CoN CLK:CoN
*  2021 08 07  3 45  0.00000000
PC07 -14748.534841  38174.091577  -8509.773436     38.079477
PC08  -5252.340246  23487.778670  34801.169815   -916.529061
PC09  -5763.348684  25139.426150 -33124.887368     -7.705991
PC10  -5396.874553  41440.625936   3197.016318    -11.022684
PC11   3188.604134  15017.552979  23360.597565    502.302289
PC12 -16811.242791  14090.856774  17262.037493    789.270971
PC13   7410.266900  31376.672610  27409.533055    364.499771
PC14   -809.078485  25354.097907 -11542.458573    741.063738
PC16 -19085.526996  24868.386364 -28178.530862   -874.632176
PC19  -6464.186577 -19735.060765  18673.355049    937.533467
PC20   6655.303364 -26768.979925   4357.715255   -825.497495
PC21 -16534.645769  18057.581980  13379.167110   -939.142512
PC22 -16274.674507  -1066.161652  22638.938735   -949.735789
PC23  21653.076444  10562.875123  14094.519330   -963.062810
PC24    563.472858  21233.785353 -18106.090595   -964.149726
PC25  16896.595548  22111.403744  -2214.249080   -874.163949
PC26 -13880.956450   8651.791339 -22610.925022    867.987056
PC27  23981.260027 -10454.650984  -9720.251168    576.823867
PC28  26721.844667   1453.566811   7930.944525    -41.510285
PC29 -14189.864271 -11965.859796 -20846.867613    429.922046
PC30   7232.784072 -16446.462844 -21356.522023    476.627015
PC32  16404.024336 -18192.638112 -13368.411984   -929.056366
PC33   6538.276356  19742.436489 -18595.420084   -953.117461
PC34  -6404.005427  16479.983079  21581.710124   -610.749576
PC35 -26654.601725   -815.695956  -8281.795950   -151.440903
PC36 -16115.123390 -22635.783608   2630.377814   -740.476598
PC37  14756.108458  -7401.925240  22525.376522   -861.829375
PC38  -4787.090995  26146.366761  32769.853639    166.889156
PC40 -12031.690797  40310.972876   1127.811899    187.901034
PC41  16204.433520   1366.572968 -22632.480244   -967.245689
PC42  -7207.785619  26714.880312  -3500.775399   -929.082598
PC43  13583.933767  12382.616108  20982.269974   -856.320264
PC44 -23762.825641  11193.151889   9452.000398    328.249947
PC45 -21588.448208 -10439.048401 -14246.446629    513.900009
PC46  -1628.227541 -21644.406010  17535.247942    143.774656
PE01   7016.531439 -23176.999864  17031.334780  -1166.309321
PE02  -6915.231449  23284.759878 -16917.257564    238.186486
PE03 -17717.802983  22597.329762  -7149.736616   -460.958583
PE04    493.032805 -20588.357951  21269.815447   -829.622386
PE05 -24832.784235  11365.876815  11412.663270   -259.214076
PE07  17398.633345   6335.954944 -23090.244674   -570.771848
PE08   -121.050191  20319.072529 -21516.979636   5958.150750
PE09 -17444.906557  -6016.104783  23144.760409   5574.643678
PE11 -26283.225073 -12374.287305  -5718.804903   5613.409479
PE12  -9981.222097 -17883.087039 -21382.827858   5072.959313
PE13  26121.028016  12491.512220   6150.885599    419.973242
PE14  14240.751653 -23336.872705 -16767.040755  -1526.767989
PE15  10077.218598  17781.603884  21410.584145    799.343183
PE18 -15493.710706  16201.302355   8839.782100  -1674.173728
PE19  19288.732285 -21888.831667   5011.568403    345.952563
PE21  15893.614896  -4880.087956  24495.642254   -680.554221
PE24 -15726.081554 -17978.747323 -17476.558197  -1049.201258
PE25 -15944.612452   4625.844440 -24493.749013   -542.433108
PE26  26389.968184   -748.987976 -13398.899808   1490.746304
PE27  16031.938783  17054.442069  18130.093713    -92.391940
PE30   5911.550578  29007.824572     86.700194   2722.288385
PE31  -6727.233368 -28805.277196  -1126.563690   -484.114883
PE33  11860.060510 -12587.093419 -24024.142679   -466.613023
PE36 -26747.649973    127.174618  12675.216041   -244.927598
PG01 -22269.917906 -14560.248821  -2991.401900    605.156655
PG02   3585.048360  17222.287717  20535.370264   -624.703306
PG04 -17339.497043  -5649.401880  19338.742821   -203.599060
PG05   6898.532922  24496.275846  -7448.638219    -50.317375
PG06  -9118.342199  11741.753361  22068.120251     51.897865
PG07 -24062.629922  -4678.340300 -10458.223520    219.584470
PG08  -7691.609899 -12983.138312 -21862.743154    -31.662574
PG09 -23239.216772   4956.684681  11828.954725   -358.072897
PG10  11858.989030 -15210.252004 -18019.435603   -177.403825
PG11      0.000000      0.000000      0.000000     30.571335
PG12  10576.122154  17665.602348  16602.984550    -79.352958
PG13  -1465.108768  16426.435860 -20926.238392    167.931126
PG14 -12612.625485  15391.400828 -17571.728281     29.549614
PG15   9908.373828  12648.056938 -21524.403022   -130.156545
PG16    -70.645586 -26218.809690  -2439.565417   -369.581829
PG17 -22786.885073  13583.365853   1772.826232    485.532077
PG18  22928.334434   2504.490385 -13257.383260    335.000529
PG19 -18570.033692  16079.200919   9628.306675     36.335744
PG20    923.988701  26190.580938   5076.473637    519.789292
PG21 -19006.633723 -15856.376914  -9606.533440    135.787679
PG22 -10813.248542 -22002.214213  10650.557314   -544.510042
PG23  14938.778598  -2931.806158 -21784.251290     74.202394
PG24  20476.412262  15503.240637  -7793.800485    200.567979
PG25  14850.846559   6153.907447  20924.108277    186.829442
PG26   5218.975557 -24022.613355   9634.119026    119.694966
PG27   3356.012857 -17675.455152 -19590.500696   -174.540263
PG28 -10038.945868  20808.434650 -12723.796076    524.389208
PG29  22804.755358  -1747.099638  13507.343560   -392.286156
PG30 -17665.933593   5976.943536 -18925.581184   -459.434686
PG31   7933.781967 -13079.491082  21623.478932   -132.885254
PG32  20581.219929 -16195.164852   3937.778836      9.445471
PJ01 -32877.589741  25752.460945  10540.660462   -433.412635
PJ02 -20081.157876  24809.749993 -22993.831059     -1.345814
PJ03 -29831.603386  25931.214872  19615.085088     -0.609026
PR01 -15863.071125  13242.575810  14945.511000     83.449043
PR02 -11067.843576  22500.303360  -4809.731631    488.797442
PR03    556.345825  16761.624005 -19198.910075     40.835183
PR04  11486.037695   1535.933768 -22697.194904     99.116708
PR05  16143.338393 -14376.097203 -13514.556883     76.709433
PR07  -1119.138514 -16225.849412  19670.310025    -41.746899
PR08 -11656.688757  -1516.718552  22693.954039    -60.244814
PR09  -1087.240916 -18897.498119  17160.710078      6.804101
PR11 -15836.168498 -13687.605622 -14574.666153     45.905567
PR12 -10418.546972   3803.306638 -22937.222091    251.580087
PR13    679.850163  18270.832810 -17792.604758    -58.780488
PR14  11877.299623  22515.696772  -1431.914040     67.360226
PR15  15696.445221  13343.978986  15063.428154    102.239421
PR16   9930.181904  -5136.580655  22914.230407    -19.146003
PR17  10488.520701   9813.198106  21093.714802    447.642483
PR18  23405.593995   4666.598047   8950.378732     86.060294
PR19  24416.912957  -1896.032041  -7160.581788   -154.449932
PR20   9742.668045  -9126.534532 -21726.714738    -53.727987
PR21 -11665.647719  -9561.160797 -20566.685072   -229.629410
PR22 -23883.162996  -4361.075952  -7989.507263   -126.572497
PR24  -8859.132612   9888.048076  21786.054011     53.511243
EOF
